{"fetched_at":"2026-07-08T07:03:34.892Z","source":"https://celestrak.org/NORAD/elements/gp.php?GROUP=oneweb&FORMAT=JSON","constellation":"oneweb","records":[{"OBJECT_NAME":"ONEWEB-0207","OBJECT_ID":"2021-031AJ","EPOCH":"2026-07-07T17:31:10.749792","CLASSIFICATION_TYPE":"U","MEAN_MOTION":13.14504338,"ECCENTRICITY":0.000214,"INCLINATION":87.8977,"RA_OF_ASC_NODE":285.607,"ARG_OF_PERICENTER":92.5866,"MEAN_ANOMALY":267.5509,"EPHEMERIS_TYPE":0,"NORAD_CAT_ID":48242,"ELEMENT_SET_NO":999,"REV_AT_EPOCH":25099,"BSTAR":0.00045734,"MEAN_MOTION_DOT":0.00000182,"MEAN_MOTION_DDOT":0},{"OBJECT_NAME":"ONEWEB-0208","OBJECT_ID":"2021-031AK","EPOCH":"2026-07-07T17:04:55.954272","CLASSIFICATION_TYPE":"U","MEAN_MOTION":13.14502301,"ECCENTRICITY":0.0002326,"INCLINATION":87.897,"RA_OF_ASC_NODE":285.6163,"ARG_OF_PERICENTER":105.7108,"MEAN_ANOMALY":254.4278,"EPHEMERIS_TYPE":0,"NORAD_CAT_ID":48243,"ELEMENT_SET_NO":999,"REV_AT_EPOCH":25100,"BSTAR":0.00052811,"MEAN_MOTION_DOT":0.00000209,"MEAN_MOTION_DDOT":0},{"OBJECT_NAME":"ONEWEB-0200","OBJECT_ID":"2021-031AL","EPOCH":"2026-07-07T18:02:01.517280","CLASSIFICATION_TYPE":"U","MEAN_MOTION":13.14502297,"ECCENTRICITY":0.0002126,"INCLINATION":87.8984,"RA_OF_ASC_NODE":285.5966,"ARG_OF_PERICENTER":99.705,"MEAN_ANOMALY":260.432,"EPHEMERIS_TYPE":0,"NORAD_CAT_ID":48244,"ELEMENT_SET_NO":999,"REV_AT_EPOCH":25093,"BSTAR":-0.00052893,"MEAN_MOTION_DOT":-0.00000183,"MEAN_MOTION_DDOT":0},{"OBJECT_NAME":"ONEWEB-0217","OBJECT_ID":"2021-031AM","EPOCH":"2026-07-07T18:24:51.522336","CLASSIFICATION_TYPE":"U","MEAN_MOTION":13.14502718,"ECCENTRICITY":0.000236,"INCLINATION":87.8981,"RA_OF_ASC_NODE":285.5975,"ARG_OF_PERICENTER":105.4135,"MEAN_ANOMALY":254.7256,"EPHEMERIS_TYPE":0,"NORAD_CAT_ID":48245,"ELEMENT_SET_NO":999,"REV_AT_EPOCH":25088,"BSTAR":-0.00048364,"MEAN_MOTION_DOT":-0.00000167,"MEAN_MOTION_DDOT":0},{"OBJECT_NAME":"ONEWEB-0211","OBJECT_ID":"2021-045A","EPOCH":"2026-07-07T17:11:29.400000","CLASSIFICATION_TYPE":"U","MEAN_MOTION":13.16197118,"ECCENTRICITY":0.0002527,"INCLINATION":87.8996,"RA_OF_ASC_NODE":254.9874,"ARG_OF_PERICENTER":110.0602,"MEAN_ANOMALY":250.0801,"EPHEMERIS_TYPE":0,"NORAD_CAT_ID":48767,"ELEMENT_SET_NO":999,"REV_AT_EPOCH":24714,"BSTAR":0.00047702,"MEAN_MOTION_DOT":0.00000194,"MEAN_MOTION_DDOT":0},{"OBJECT_NAME":"ONEWEB-0223","OBJECT_ID":"2021-045B","EPOCH":"2026-07-07T17:29:23.801280","CLASSIFICATION_TYPE":"U","MEAN_MOTION":13.1554773,"ECCENTRICITY":0.0002158,"INCLINATION":87.9002,"RA_OF_ASC_NODE":255.099,"ARG_OF_PERICENTER":108.7573,"MEAN_ANOMALY":251.3791,"EPHEMERIS_TYPE":0,"NORAD_CAT_ID":48768,"ELEMENT_SET_NO":999,"REV_AT_EPOCH":24710,"BSTAR":0.000065604,"MEAN_MOTION_DOT":3.8e-7,"MEAN_MOTION_DDOT":0},{"OBJECT_NAME":"ONEWEB-0230","OBJECT_ID":"2021-045C","EPOCH":"2026-07-07T16:48:19.744128","CLASSIFICATION_TYPE":"U","MEAN_MOTION":13.1554747,"ECCENTRICITY":0.0001951,"INCLINATION":87.8985,"RA_OF_ASC_NODE":255.1171,"ARG_OF_PERICENTER":96.6015,"MEAN_ANOMALY":263.5338,"EPHEMERIS_TYPE":0,"NORAD_CAT_ID":48769,"ELEMENT_SET_NO":999,"REV_AT_EPOCH":24736,"BSTAR":0.00017569,"MEAN_MOTION_DOT":7.9e-7,"MEAN_MOTION_DDOT":0},{"OBJECT_NAME":"ONEWEB-0237","OBJECT_ID":"2021-045D","EPOCH":"2026-07-07T16:32:20.960736","CLASSIFICATION_TYPE":"U","MEAN_MOTION":13.15547599,"ECCENTRICITY":0.0002397,"INCLINATION":87.8984,"RA_OF_ASC_NODE":255.1208,"ARG_OF_PERICENTER":99.3127,"MEAN_ANOMALY":260.8275,"EPHEMERIS_TYPE":0,"NORAD_CAT_ID":48770,"ELEMENT_SET_NO":999,"REV_AT_EPOCH":24708,"BSTAR":0.000033824,"MEAN_MOTION_DOT":2.6e-7,"MEAN_MOTION_DDOT":0},{"OBJECT_NAME":"ONEWEB-0235","OBJECT_ID":"2021-045E","EPOCH":"2026-07-07T17:45:21.436416","CLASSIFICATION_TYPE":"U","MEAN_MOTION":13.15549767,"ECCENTRICITY":0.000208,"INCLINATION":87.9001,"RA_OF_ASC_NODE":255.0978,"ARG_OF_PERICENTER":110.6553,"MEAN_ANOMALY":249.4801,"EPHEMERIS_TYPE":0,"NORAD_CAT_ID":48771,"ELEMENT_SET_NO":999,"REV_AT_EPOCH":24708,"BSTAR":-0.00020251,"MEAN_MOTION_DOT":-6.3e-7,"MEAN_MOTION_DDOT":0},{"OBJECT_NAME":"ONEWEB-0242","OBJECT_ID":"2021-045F","EPOCH":"2026-07-07T17:36:14.616864","CLASSIFICATION_TYPE":"U","MEAN_MOTION":13.15548406,"ECCENTRICITY":0.0001921,"INCLINATION":87.9003,"RA_OF_ASC_NODE":255.0964,"ARG_OF_PERICENTER":102.1255,"MEAN_ANOMALY":258.009,"EPHEMERIS_TYPE":0,"NORAD_CAT_ID":48772,"ELEMENT_SET_NO":999,"REV_AT_EPOCH":24712,"BSTAR":-0.000029217,"MEAN_MOTION_DOT":2e-8,"MEAN_MOTION_DDOT":0},{"OBJECT_NAME":"ONEWEB-0241","OBJECT_ID":"2021-045G","EPOCH":"2026-07-07T17:17:58.015968","CLASSIFICATION_TYPE":"U","MEAN_MOTION":13.15550864,"ECCENTRICITY":0.000225,"INCLINATION":87.8997,"RA_OF_ASC_NODE":255.1136,"ARG_OF_PERICENTER":103.3533,"MEAN_ANOMALY":256.7848,"EPHEMERIS_TYPE":0,"NORAD_CAT_ID":48773,"ELEMENT_SET_NO":999,"REV_AT_EPOCH":24703,"BSTAR":0.00034828,"MEAN_MOTION_DOT":0.00000144,"MEAN_MOTION_DDOT":0},{"OBJECT_NAME":"ONEWEB-0243","OBJECT_ID":"2021-045H","EPOCH":"2026-07-07T16:14:05.930592","CLASSIFICATION_TYPE":"U","MEAN_MOTION":13.15550421,"ECCENTRICITY":0.0001674,"INCLINATION":87.899,"RA_OF_ASC_NODE":255.1368,"ARG_OF_PERICENTER":110.4526,"MEAN_ANOMALY":249.6784,"EPHEMERIS_TYPE":0,"NORAD_CAT_ID":48774,"ELEMENT_SET_NO":999,"REV_AT_EPOCH":24705,"BSTAR":-0.00044225,"MEAN_MOTION_DOT":-0.00000154,"MEAN_MOTION_DDOT":0},{"OBJECT_NAME":"ONEWEB-0222","OBJECT_ID":"2021-045J","EPOCH":"2026-07-07T17:39:38.710080","CLASSIFICATION_TYPE":"U","MEAN_MOTION":13.15546908,"ECCENTRICITY":0.0002157,"INCLINATION":87.9,"RA_OF_ASC_NODE":255.094,"ARG_OF_PERICENTER":100.8237,"MEAN_ANOMALY":259.3136,"EPHEMERIS_TYPE":0,"NORAD_CAT_ID":48775,"ELEMENT_SET_NO":999,"REV_AT_EPOCH":24710,"BSTAR":-0.000069927,"MEAN_MOTION_DOT":-1.3e-7,"MEAN_MOTION_DDOT":0},{"OBJECT_NAME":"ONEWEB-0244","OBJECT_ID":"2021-045K","EPOCH":"2026-07-07T16:27:47.402784","CLASSIFICATION_TYPE":"U","MEAN_MOTION":13.15548305,"ECCENTRICITY":0.000202,"INCLINATION":87.9002,"RA_OF_ASC_NODE":255.0997,"ARG_OF_PERICENTER":102.2277,"MEAN_ANOMALY":257.908,"EPHEMERIS_TYPE":0,"NORAD_CAT_ID":48776,"ELEMENT_SET_NO":999,"REV_AT_EPOCH":24766,"BSTAR":-0.00065348,"MEAN_MOTION_DOT":-0.00000233,"MEAN_MOTION_DDOT":0},{"OBJECT_NAME":"ONEWEB-0247","OBJECT_ID":"2021-045L","EPOCH":"2026-07-07T16:23:13.661664","CLASSIFICATION_TYPE":"U","MEAN_MOTION":13.15548563,"ECCENTRICITY":0.0001836,"INCLINATION":87.8987,"RA_OF_ASC_NODE":255.1297,"ARG_OF_PERICENTER":122.6214,"MEAN_ANOMALY":237.5094,"EPHEMERIS_TYPE":0,"NORAD_CAT_ID":48777,"ELEMENT_SET_NO":999,"REV_AT_EPOCH":24710,"BSTAR":-0.00031991,"MEAN_MOTION_DOT":-0.00000108,"MEAN_MOTION_DDOT":0},{"OBJECT_NAME":"ONEWEB-0245","OBJECT_ID":"2021-045M","EPOCH":"2026-07-07T16:16:22.293120","CLASSIFICATION_TYPE":"U","MEAN_MOTION":13.15549055,"ECCENTRICITY":0.0002234,"INCLINATION":87.9001,"RA_OF_ASC_NODE":255.1117,"ARG_OF_PERICENTER":102.2044,"MEAN_ANOMALY":257.9337,"EPHEMERIS_TYPE":0,"NORAD_CAT_ID":48778,"ELEMENT_SET_NO":999,"REV_AT_EPOCH":24707,"BSTAR":-0.00041745,"MEAN_MOTION_DOT":-0.00000144,"MEAN_MOTION_DDOT":0}]}
